[{"OBJECT_NAME":"KINEIS-5E","OBJECT_ID":"2024-219C","EPOCH":"2026-03-02T21:16:36.057216","MEAN_MOTION":14.72316739,"ECCENTRICITY":0.0002517,"INCLINATION":97.9674,"RA_OF_ASC_NODE":223.6525,"ARG_OF_PERICENTER":136.9344,"MEAN_ANOMALY":223.2061,"EPHEMERIS_TYPE":0,"CLASSIFICATION_TYPE":"U","NORAD_CAT_ID":62083,"ELEMENT_SET_NO":999,"REV_AT_EPOCH":6812,"BSTAR":6.4236e-5,"MEAN_MOTION_DOT":3.57e-6,"MEAN_MOTION_DDOT":0},{"OBJECT_NAME":"KINEIS-5A","OBJECT_ID":"2024-219D","EPOCH":"2026-03-02T17:08:14.477280","MEAN_MOTION":14.72184926,"ECCENTRICITY":0.0001177,"INCLINATION":97.9801,"RA_OF_ASC_NODE":223.5793,"ARG_OF_PERICENTER":241.4857,"MEAN_ANOMALY":118.6232,"EPHEMERIS_TYPE":0,"CLASSIFICATION_TYPE":"U","NORAD_CAT_ID":62084,"ELEMENT_SET_NO":999,"REV_AT_EPOCH":6810,"BSTAR":0.0001687,"MEAN_MOTION_DOT":1.014e-5,"MEAN_MOTION_DDOT":0},{"OBJECT_NAME":"KINEIS-5B","OBJECT_ID":"2024-219E","EPOCH":"2026-03-02T20:11:00.412800","MEAN_MOTION":14.78039631,"ECCENTRICITY":0.000105,"INCLINATION":97.9929,"RA_OF_ASC_NODE":226.3765,"ARG_OF_PERICENTER":219.2845,"MEAN_ANOMALY":140.829,"EPHEMERIS_TYPE":0,"CLASSIFICATION_TYPE":"U","NORAD_CAT_ID":62085,"ELEMENT_SET_NO":999,"REV_AT_EPOCH":6829,"BSTAR":0.00031982,"MEAN_MOTION_DOT":2.258e-5,"MEAN_MOTION_DDOT":0},{"OBJECT_NAME":"KINEIS-2C","OBJECT_ID":"2025-028B","EPOCH":"2026-03-02T17:27:03.948192","MEAN_MOTION":14.72292384,"ECCENTRICITY":0.0001514,"INCLINATION":98.0285,"RA_OF_ASC_NODE":116.9808,"ARG_OF_PERICENTER":41.5978,"MEAN_ANOMALY":318.5344,"EPHEMERIS_TYPE":0,"CLASSIFICATION_TYPE":"U","NORAD_CAT_ID":62929,"ELEMENT_SET_NO":999,"REV_AT_EPOCH":5694,"BSTAR":0.00024903,"MEAN_MOTION_DOT":1.524e-5,"MEAN_MOTION_DDOT":0},{"OBJECT_NAME":"KINEIS-2D","OBJECT_ID":"2025-028C","EPOCH":"2026-03-02T17:15:51.785568","MEAN_MOTION":14.75310372,"ECCENTRICITY":0.0003597,"INCLINATION":97.9427,"RA_OF_ASC_NODE":116.177,"ARG_OF_PERICENTER":164.1344,"MEAN_ANOMALY":195.9978,"EPHEMERIS_TYPE":0,"CLASSIFICATION_TYPE":"U","NORAD_CAT_ID":62930,"ELEMENT_SET_NO":999,"REV_AT_EPOCH":5701,"BSTAR":0.00031501,"MEAN_MOTION_DOT":2.085e-5,"MEAN_MOTION_DDOT":0},{"OBJECT_NAME":"KINEIS-2E","OBJECT_ID":"2025-028D","EPOCH":"2026-03-02T17:14:08.424384","MEAN_MOTION":14.76687932,"ECCENTRICITY":0.0001815,"INCLINATION":97.9095,"RA_OF_ASC_NODE":115.5752,"ARG_OF_PERICENTER":116.6981,"MEAN_ANOMALY":243.4415,"EPHEMERIS_TYPE":0,"CLASSIFICATION_TYPE":"U","NORAD_CAT_ID":62931,"ELEMENT_SET_NO":999,"REV_AT_EPOCH":5706,"BSTAR":0.00025446,"MEAN_MOTION_DOT":1.73e-5,"MEAN_MOTION_DDOT":0},{"OBJECT_NAME":"KINEIS-2A","OBJECT_ID":"2025-028E","EPOCH":"2026-03-02T14:50:48.037920","MEAN_MOTION":14.7207785,"ECCENTRICITY":0.0003275,"INCLINATION":98.0699,"RA_OF_ASC_NODE":117.1738,"ARG_OF_PERICENTER":218.3963,"MEAN_ANOMALY":141.7011,"EPHEMERIS_TYPE":0,"CLASSIFICATION_TYPE":"U","NORAD_CAT_ID":62932,"ELEMENT_SET_NO":999,"REV_AT_EPOCH":5692,"BSTAR":0.00023662,"MEAN_MOTION_DOT":1.438e-5,"MEAN_MOTION_DDOT":0},{"OBJECT_NAME":"KINEIS-2B","OBJECT_ID":"2025-028G","EPOCH":"2026-03-02T17:05:17.391840","MEAN_MOTION":14.73090175,"ECCENTRICITY":0.0004776,"INCLINATION":97.9808,"RA_OF_ASC_NODE":116.4618,"ARG_OF_PERICENTER":125.1366,"MEAN_ANOMALY":235.029,"EPHEMERIS_TYPE":0,"CLASSIFICATION_TYPE":"U","NORAD_CAT_ID":62934,"ELEMENT_SET_NO":999,"REV_AT_EPOCH":5698,"BSTAR":0.0002533,"MEAN_MOTION_DOT":1.581e-5,"MEAN_MOTION_DDOT":0},{"OBJECT_NAME":"KINEIS-4E","OBJECT_ID":"2025-056A","EPOCH":"2026-03-02T19:44:09.205728","MEAN_MOTION":14.72323705,"ECCENTRICITY":5.12e-5,"INCLINATION":97.993,"RA_OF_ASC_NODE":188.2436,"ARG_OF_PERICENTER":196.3345,"MEAN_ANOMALY":163.7846,"EPHEMERIS_TYPE":0,"CLASSIFICATION_TYPE":"U","NORAD_CAT_ID":63300,"ELEMENT_SET_NO":999,"REV_AT_EPOCH":5147,"BSTAR":0.00046894,"MEAN_MOTION_DOT":2.917e-5,"MEAN_MOTION_DDOT":0},{"OBJECT_NAME":"KINEIS-4C","OBJECT_ID":"2025-056B","EPOCH":"2026-03-02T20:02:06.732960","MEAN_MOTION":14.72365014,"ECCENTRICITY":8.12e-5,"INCLINATION":97.999,"RA_OF_ASC_NODE":188.4182,"ARG_OF_PERICENTER":48.5801,"MEAN_ANOMALY":311.5476,"EPHEMERIS_TYPE":0,"CLASSIFICATION_TYPE":"U","NORAD_CAT_ID":63301,"ELEMENT_SET_NO":999,"REV_AT_EPOCH":5148,"BSTAR":0.00047603,"MEAN_MOTION_DOT":2.964e-5,"MEAN_MOTION_DDOT":0},{"OBJECT_NAME":"KINEIS-4D","OBJECT_ID":"2025-056C","EPOCH":"2026-03-02T20:09:18.663840","MEAN_MOTION":14.72336016,"ECCENTRICITY":5.95e-5,"INCLINATION":97.9972,"RA_OF_ASC_NODE":188.4021,"ARG_OF_PERICENTER":336.8147,"MEAN_ANOMALY":23.3033,"EPHEMERIS_TYPE":0,"CLASSIFICATION_TYPE":"U","NORAD_CAT_ID":63302,"ELEMENT_SET_NO":999,"REV_AT_EPOCH":5148,"BSTAR":0.00050527,"MEAN_MOTION_DOT":3.147e-5,"MEAN_MOTION_DDOT":0},{"OBJECT_NAME":"KINEIS-4A","OBJECT_ID":"2025-056D","EPOCH":"2026-03-01T12:19:37.802208","MEAN_MOTION":14.72266272,"ECCENTRICITY":0.00016067,"INCLINATION":97.994,"RA_OF_ASC_NODE":187.0254,"ARG_OF_PERICENTER":279.0332,"MEAN_ANOMALY":81.0694,"EPHEMERIS_TYPE":0,"CLASSIFICATION_TYPE":"U","NORAD_CAT_ID":63303,"ELEMENT_SET_NO":999,"REV_AT_EPOCH":5128,"BSTAR":-0.00013071191,"MEAN_MOTION_DOT":-8.74e-6,"MEAN_MOTION_DDOT":0},{"OBJECT_NAME":"KINEIS-4B","OBJECT_ID":"2025-056E","EPOCH":"2026-03-02T15:39:00.762624","MEAN_MOTION":14.7234419,"ECCENTRICITY":0.00018,"INCLINATION":97.9965,"RA_OF_ASC_NODE":188.1908,"ARG_OF_PERICENTER":217.748,"MEAN_ANOMALY":142.3601,"EPHEMERIS_TYPE":0,"CLASSIFICATION_TYPE":"U","NORAD_CAT_ID":63304,"ELEMENT_SET_NO":999,"REV_AT_EPOCH":5144,"BSTAR":0.00043768,"MEAN_MOTION_DOT":2.72e-5,"MEAN_MOTION_DDOT":0}]
