KINEIS-5E               
1 62083U 24219C   26061.88652844  .00000357  00000+0  64236-4 0  9996
2 62083  97.9674 223.6525 0002517 136.9344 223.2061 14.72316739 68129
KINEIS-5A               
1 62084U 24219D   26061.71405645  .00001014  00000+0  16870-3 0  9995
2 62084  97.9801 223.5793 0001177 241.4857 118.6232 14.72184926 68106
KINEIS-5B               
1 62085U 24219E   26061.84097700  .00002258  00000+0  31982-3 0  9991
2 62085  97.9929 226.3765 0001050 219.2845 140.8290 14.78039631 68297
KINEIS-2C               
1 62929U 25028B   26061.72712903  .00001524  00000+0  24903-3 0  9993
2 62929  98.0285 116.9808 0001514  41.5978 318.5344 14.72292384 56944
KINEIS-2D               
1 62930U 25028C   26061.71934937  .00002085  00000+0  31501-3 0  9992
2 62930  97.9427 116.1770 0003597 164.1344 195.9978 14.75310372 57014
KINEIS-2E               
1 62931U 25028D   26061.71815306  .00001730  00000+0  25446-3 0  9998
2 62931  97.9095 115.5752 0001815 116.6981 243.4415 14.76687932 57069
KINEIS-2A               
1 62932U 25028E   26061.61861155  .00001438  00000+0  23662-3 0  9994
2 62932  98.0699 117.1738 0003275 218.3963 141.7011 14.72077850 56920
KINEIS-2B               
1 62934U 25028G   26061.71200685  .00001581  00000+0  25330-3 0  9995
2 62934  97.9808 116.4618 0004776 125.1366 235.0290 14.73090175 56988
KINEIS-4E               
1 63300U 25056A   26061.82232877  .00002917  00000+0  46894-3 0  9996
2 63300  97.9930 188.2436 0000512 196.3345 163.7846 14.72323705 51478
KINEIS-4C               
1 63301U 25056B   26061.83480015  .00002964  00000+0  47603-3 0  9998
2 63301  97.9990 188.4182 0000812  48.5801 311.5476 14.72365014 51485
KINEIS-4D               
1 63302U 25056C   26061.83979935  .00003147  00000+0  50527-3 0  9996
2 63302  97.9972 188.4021 0000595 336.8147  23.3033 14.72336016 51489
KINEIS-4A               
1 63303U 25056D   26060.51363197 -.00000874  00000+0 -13071-3 0  9997
2 63303  97.9940 187.0254 0001606 279.0332  81.0694 14.72266272 51284
KINEIS-4B               
1 63304U 25056E   26061.65209216  .00002720  00000+0  43768-3 0  9991
2 63304  97.9965 188.1908 0001800 217.7480 142.3601 14.72344190 51442
